CCSDS_OMM_VERS = 2.0
CREATION_DATE  = 
ORIGINATOR     = 

OBJECT_NAME    = ATLAS CENTAUR R/B
OBJECT_ID      = 1972-065B
CENTER_NAME    = EARTH
REF_FRAME      = TEME
TIME_SYSTEM    = UTC
MEAN_ELEMENT_THEORY = SGP/SGP4

EPOCH          = 2026-02-20T01:23:53.651040
MEAN_MOTION    = 14.77631382
ECCENTRICITY   = .0034248
INCLINATION    = 35.0020
RA_OF_ASC_NODE = 49.0737
ARG_OF_PERICENTER = 222.6154
MEAN_ANOMALY   = 137.1887

EPHEMERIS_TYPE = 0
CLASSIFICATION_TYPE = U
NORAD_CAT_ID   = 6155
ELEMENT_SET_NO = 999
REV_AT_EPOCH   = 83865
BSTAR          = .16792E-3
MEAN_MOTION_DOT = .121E-4
MEAN_MOTION_DDOT = 0

CCSDS_OMM_VERS = 2.0
CREATION_DATE  = 
ORIGINATOR     = 

OBJECT_NAME    = SL-8 R/B
OBJECT_ID      = 1975-112B
CENTER_NAME    = EARTH
REF_FRAME      = TEME
TIME_SYSTEM    = UTC
MEAN_ELEMENT_THEORY = SGP/SGP4

EPOCH          = 2026-02-20T02:42:59.228064
MEAN_MOTION    = 14.38193520
ECCENTRICITY   = .0014929
INCLINATION    = 74.0596
RA_OF_ASC_NODE = 51.2458
ARG_OF_PERICENTER = 151.2595
MEAN_ANOMALY   = 208.9385

EPHEMERIS_TYPE = 0
CLASSIFICATION_TYPE = U
NORAD_CAT_ID   = 8459
ELEMENT_SET_NO = 999
REV_AT_EPOCH   = 62934
BSTAR          = .51712E-4
MEAN_MOTION_DOT = .131E-5
MEAN_MOTION_DDOT = 0

CCSDS_OMM_VERS = 2.0
CREATION_DATE  = 
ORIGINATOR     = 

OBJECT_NAME    = SL-3 R/B
OBJECT_ID      = 1977-057B
CENTER_NAME    = EARTH
REF_FRAME      = TEME
TIME_SYSTEM    = UTC
MEAN_ELEMENT_THEORY = SGP/SGP4

EPOCH          = 2026-02-20T02:30:51.902496
MEAN_MOTION    = 15.44954964
ECCENTRICITY   = .0007173
INCLINATION    = 97.5747
RA_OF_ASC_NODE = 222.2617
ARG_OF_PERICENTER = 355.4663
MEAN_ANOMALY   = 4.6519

EPHEMERIS_TYPE = 0
CLASSIFICATION_TYPE = U
NORAD_CAT_ID   = 10114
ELEMENT_SET_NO = 999
REV_AT_EPOCH   = 66561
BSTAR          = .25121E-3
MEAN_MOTION_DOT = .11745E-3
MEAN_MOTION_DDOT = 0

CCSDS_OMM_VERS = 2.0
CREATION_DATE  = 
ORIGINATOR     = 

OBJECT_NAME    = SEASAT 1
OBJECT_ID      = 1978-064A
CENTER_NAME    = EARTH
REF_FRAME      = TEME
TIME_SYSTEM    = UTC
MEAN_ELEMENT_THEORY = SGP/SGP4

EPOCH          = 2026-02-20T01:33:03.720960
MEAN_MOTION    = 14.46145600
ECCENTRICITY   = .0001886
INCLINATION    = 108.0150
RA_OF_ASC_NODE = 88.5128
ARG_OF_PERICENTER = 290.6782
MEAN_ANOMALY   = 69.4161

EPHEMERIS_TYPE = 0
CLASSIFICATION_TYPE = U
NORAD_CAT_ID   = 10967
ELEMENT_SET_NO = 999
REV_AT_EPOCH   = 50396
BSTAR          = .92901E-4
MEAN_MOTION_DOT = .195E-5
MEAN_MOTION_DDOT = 0

CCSDS_OMM_VERS = 2.0
CREATION_DATE  = 
ORIGINATOR     = 

OBJECT_NAME    = SL-14 R/B
OBJECT_ID      = 1979-011B
CENTER_NAME    = EARTH
REF_FRAME      = TEME
TIME_SYSTEM    = UTC
MEAN_ELEMENT_THEORY = SGP/SGP4

EPOCH          = 2026-02-20T03:24:42.429600
MEAN_MOTION    = 14.91886101
ECCENTRICITY   = .001756
INCLINATION    = 82.5236
RA_OF_ASC_NODE = 113.2232
ARG_OF_PERICENTER = 114.3924
MEAN_ANOMALY   = 245.9130

EPHEMERIS_TYPE = 0
CLASSIFICATION_TYPE = U
NORAD_CAT_ID   = 11267
ELEMENT_SET_NO = 999
REV_AT_EPOCH   = 52616
BSTAR          = .503E-4
MEAN_MOTION_DOT = .535E-5
MEAN_MOTION_DDOT = 0

CCSDS_OMM_VERS = 2.0
CREATION_DATE  = 
ORIGINATOR     = 

OBJECT_NAME    = SL-8 R/B
OBJECT_ID      = 1979-089B
CENTER_NAME    = EARTH
REF_FRAME      = TEME
TIME_SYSTEM    = UTC
MEAN_ELEMENT_THEORY = SGP/SGP4

EPOCH          = 2026-02-19T15:25:23.499840
MEAN_MOTION    = 14.42339059
ECCENTRICITY   = .00168956
INCLINATION    = 74.0689
RA_OF_ASC_NODE = 124.4516
ARG_OF_PERICENTER = 298.9459
MEAN_ANOMALY   = 61.0003

EPHEMERIS_TYPE = 0
CLASSIFICATION_TYPE = U
NORAD_CAT_ID   = 11574
ELEMENT_SET_NO = 999
REV_AT_EPOCH   = 43350
BSTAR          = .79655172E-4
MEAN_MOTION_DOT = .237E-5
MEAN_MOTION_DDOT = 0

CCSDS_OMM_VERS = 2.0
CREATION_DATE  = 
ORIGINATOR     = 

OBJECT_NAME    = SL-14 R/B
OBJECT_ID      = 1980-005B
CENTER_NAME    = EARTH
REF_FRAME      = TEME
TIME_SYSTEM    = UTC
MEAN_ELEMENT_THEORY = SGP/SGP4

EPOCH          = 2026-02-20T03:26:50.940960
MEAN_MOTION    = 14.90906846
ECCENTRICITY   = .0014637
INCLINATION    = 82.5171
RA_OF_ASC_NODE = 323.8761
ARG_OF_PERICENTER = 217.6692
MEAN_ANOMALY   = 142.3504

EPHEMERIS_TYPE = 0
CLASSIFICATION_TYPE = U
NORAD_CAT_ID   = 11672
ELEMENT_SET_NO = 999
REV_AT_EPOCH   = 47387
BSTAR          = .54838E-4
MEAN_MOTION_DOT = .567E-5
MEAN_MOTION_DDOT = 0

CCSDS_OMM_VERS = 2.0
CREATION_DATE  = 
ORIGINATOR     = 

OBJECT_NAME    = SL-8 R/B
OBJECT_ID      = 1981-003B
CENTER_NAME    = EARTH
REF_FRAME      = TEME
TIME_SYSTEM    = UTC
MEAN_ELEMENT_THEORY = SGP/SGP4

EPOCH          = 2026-02-20T02:45:56.930400
MEAN_MOTION    = 15.10295882
ECCENTRICITY   = .0262626
INCLINATION    = 82.9393
RA_OF_ASC_NODE = 306.2667
ARG_OF_PERICENTER = 239.8030
MEAN_ANOMALY   = 117.6958

EPHEMERIS_TYPE = 0
CLASSIFICATION_TYPE = U
NORAD_CAT_ID   = 12139
ELEMENT_SET_NO = 999
REV_AT_EPOCH   = 31202
BSTAR          = .37305E-3
MEAN_MOTION_DOT = .1422E-3
MEAN_MOTION_DDOT = 0

CCSDS_OMM_VERS = 2.0
CREATION_DATE  = 
ORIGINATOR     = 

OBJECT_NAME    = SL-3 R/B
OBJECT_ID      = 1981-046B
CENTER_NAME    = EARTH
REF_FRAME      = TEME
TIME_SYSTEM    = UTC
MEAN_ELEMENT_THEORY = SGP/SGP4

EPOCH          = 2026-02-20T03:08:33.935712
MEAN_MOTION    = 15.41491875
ECCENTRICITY   = .0020737
INCLINATION    = 81.2332
RA_OF_ASC_NODE = 310.8186
ARG_OF_PERICENTER = 80.4564
MEAN_ANOMALY   = 279.9021

EPHEMERIS_TYPE = 0
CLASSIFICATION_TYPE = U
NORAD_CAT_ID   = 12465
ELEMENT_SET_NO = 999
REV_AT_EPOCH   = 43572
BSTAR          = .27894E-3
MEAN_MOTION_DOT = .11813E-3
MEAN_MOTION_DDOT = 0

CCSDS_OMM_VERS = 2.0
CREATION_DATE  = 
ORIGINATOR     = 

OBJECT_NAME    = SL-3 R/B
OBJECT_ID      = 1981-103B
CENTER_NAME    = EARTH
REF_FRAME      = TEME
TIME_SYSTEM    = UTC
MEAN_ELEMENT_THEORY = SGP/SGP4

EPOCH          = 2026-02-20T03:27:58.495392
MEAN_MOTION    = 15.21147850
ECCENTRICITY   = .0013111
INCLINATION    = 81.1559
RA_OF_ASC_NODE = 234.0132
ARG_OF_PERICENTER = 348.6865
MEAN_ANOMALY   = 11.4070

EPHEMERIS_TYPE = 0
CLASSIFICATION_TYPE = U
NORAD_CAT_ID   = 12904
ELEMENT_SET_NO = 999
REV_AT_EPOCH   = 97056
BSTAR          = .20411E-3
MEAN_MOTION_DOT = .4579E-4
MEAN_MOTION_DDOT = 0

CCSDS_OMM_VERS = 2.0
CREATION_DATE  = 
ORIGINATOR     = 

OBJECT_NAME    = SL-3 R/B
OBJECT_ID      = 1982-013B
CENTER_NAME    = EARTH
REF_FRAME      = TEME
TIME_SYSTEM    = UTC
MEAN_ELEMENT_THEORY = SGP/SGP4

EPOCH          = 2026-02-20T03:50:23.306208
MEAN_MOTION    = 15.21811422
ECCENTRICITY   = .002185
INCLINATION    = 81.1763
RA_OF_ASC_NODE = 181.3085
ARG_OF_PERICENTER = 237.6446
MEAN_ANOMALY   = 122.2671

EPHEMERIS_TYPE = 0
CLASSIFICATION_TYPE = U
NORAD_CAT_ID   = 13068
ELEMENT_SET_NO = 999
REV_AT_EPOCH   = 40168
BSTAR          = .21831E-3
MEAN_MOTION_DOT = .5013E-4
MEAN_MOTION_DDOT = 0

CCSDS_OMM_VERS = 2.0
CREATION_DATE  = 
ORIGINATOR     = 

OBJECT_NAME    = SL-3 R/B
OBJECT_ID      = 1982-039B
CENTER_NAME    = EARTH
REF_FRAME      = TEME
TIME_SYSTEM    = UTC
MEAN_ELEMENT_THEORY = SGP/SGP4

EPOCH          = 2026-02-20T02:19:20.652384
MEAN_MOTION    = 15.09973023
ECCENTRICITY   = .0030017
INCLINATION    = 81.1590
RA_OF_ASC_NODE = 236.2425
ARG_OF_PERICENTER = 21.9328
MEAN_ANOMALY   = 338.3174

EPHEMERIS_TYPE = 0
CLASSIFICATION_TYPE = U
NORAD_CAT_ID   = 13154
ELEMENT_SET_NO = 999
REV_AT_EPOCH   = 37898
BSTAR          = .12265E-3
MEAN_MOTION_DOT = .2035E-4
MEAN_MOTION_DDOT = 0

