ATLAS CENTAUR R/B       
1 06155U 72065B   26051.05825985  .00001210  00000+0  16792-3 0  9994
2 06155  35.0020  49.0737 0034248 222.6154 137.1887 14.77631382838659
SL-8 R/B                
1 08459U 75112B   26051.11318551  .00000131  00000+0  51712-4 0  9995
2 08459  74.0596  51.2458 0014929 151.2595 208.9385 14.38193520629342
SL-3 R/B                
1 10114U 77057B   26051.10476739  .00011745  00000+0  25121-3 0  9995
2 10114  97.5747 222.2617 0007173 355.4663   4.6519 15.44954964665610
SEASAT 1                
1 10967U 78064A   26051.06462640  .00000195  00000+0  92901-4 0  9999
2 10967 108.0150  88.5128 0001886 290.6782  69.4161 14.46145600503960
SL-14 R/B               
1 11267U 79011B   26051.14215775  .00000535  00000+0  50300-4 0  9995
2 11267  82.5236 113.2232 0017560 114.3924 245.9130 14.91886101526165
SL-8 R/B                
1 11574U 79089B   26050.64263310  .00000237  00000+0  79655-4 0  9996
2 11574  74.0689 124.4516 0016895 298.9459  61.0003 14.42339059433507
SL-14 R/B               
1 11672U 80005B   26051.14364515  .00000567  00000+0  54838-4 0  9992
2 11672  82.5171 323.8761 0014637 217.6692 142.3504 14.90906846473872
SL-8 R/B                
1 12139U 81003B   26051.11524225  .00014220  00000+0  37305-3 0  9993
2 12139  82.9393 306.2667 0262626 239.8030 117.6958 15.10295882312027
SL-3 R/B                
1 12465U 81046B   26051.13094833  .00011813  00000+0  27894-3 0  9998
2 12465  81.2332 310.8186 0020737  80.4564 279.9021 15.41491875435728
SL-3 R/B                
1 12904U 81103B   26051.14442703  .00004579  00000+0  20411-3 0  9993
2 12904  81.1559 234.0132 0013111 348.6865  11.4070 15.21147850970563
SL-3 R/B                
1 13068U 82013B   26051.15999197  .00005013  00000+0  21831-3 0  9992
2 13068  81.1763 181.3085 0021850 237.6446 122.2671 15.21811422401687
SL-3 R/B                
1 13154U 82039B   26051.09676681  .00002035  00000+0  12265-3 0  9991
2 13154  81.1590 236.2425 0030017  21.9328 338.3174 15.09973023378983
